{"type": "FeatureCollection", "features": [ {"type": "Feature", "properties": {"norad_id": 30146, "name": "FENGYUN 1C DEB", "group": "fengyun-1c-debris", "lat": -64.70278263552352, "lon": 168.87086714510295, "alt_km": 1077.3157752698771, "timestamp": "2025-12-18T17:50:15.231234+00:00", "meta": {"OBJECT_NAME": "FENGYUN 1C DEB", "OBJECT_ID": "1999-025TB", "EPOCH": "2025-12-17T23:41:22.579296", "MEAN_MOTION": 13.86608404, "ECCENTRICITY": 0.01787583, "INCLINATION": 98.02, "RA_OF_ASC_NODE": 150.8669, "ARG_OF_PERICENTER": 108.3546, "MEAN_ANOMALY": 13.5351, "EPHEMERIS_TYPE": 0, "CLASSIFICATION_TYPE": "U", "NORAD_CAT_ID": 30146, "ELEMENT_SET_NO": 999, "REV_AT_EPOCH": 95490, "BSTAR": 0.00049941906, "MEAN_MOTION_DOT": 6.25e-06, "MEAN_MOTION_DDOT": 0}, "tle": {"line1": "1 30146U 99025TB  25351.98706689  .00000625  00000+0  49942-3 0  9991", "line2": "2 30146  98.0200 150.8669 0178758 108.3546  13.5351 13.86608404954908"}}, "geometry": {"type": "Point", "coordinates": [168.87086714510295, -64.70278263552352]}}, {"type": "Feature", "properties": {"norad_id": 30148, "name": "FENGYUN 1C DEB", "group": "fengyun-1c-debris", "lat": 1.0593786448205138, "lon": 142.01068609908808, "alt_km": 1035.3303682719725, "timestamp": "2025-12-18T17:50:15.231244+00:00", "meta": {"OBJECT_NAME": "FENGYUN 1C DEB", "OBJECT_ID": "1999-025TD", "EPOCH": "2025-12-17T09:06:57.167712", "MEAN_MOTION": 13.88498273, "ECCENTRICITY": 0.01350142, "INCLINATION": 99.5451, "RA_OF_ASC_NODE": 140.7941, "ARG_OF_PERICENTER": 184.3625, "MEAN_ANOMALY": 205.3645, "EPHEMERIS_TYPE": 0, "CLASSIFICATION_TYPE": "U", "NORAD_CAT_ID": 30148, "ELEMENT_SET_NO": 999, "REV_AT_EPOCH": 95581, "BSTAR": 0.00072912459, "MEAN_MOTION_DOT": 8.95e-06, "MEAN_MOTION_DDOT": 0}, "tle": {"line1": "1 30148U 99025TD  25351.37982833  .00000895  00000+0  72912-3 0  9995", "line2": "2 30148  99.5451 140.7941 0135014 184.3625 205.3645 13.88498273955816"}}, "geometry": {"type": "Point", "coordinates": [142.01068609908808, 1.0593786448205138]}}, {"type": "Feature", "properties": {"norad_id": 30150, "name": "FENGYUN 1C DEB", "group": "fengyun-1c-debris", "lat": 77.97384523531528, "lon": -3.4647434383831883, "alt_km": 1012.3511357801553, "timestamp": "2025-12-18T17:50:15.231254+00:00", "meta": {"OBJECT_NAME": "FENGYUN 1C DEB", "OBJECT_ID": "1999-025TF", "EPOCH": "2025-12-17T21:13:21.176832", "MEAN_MOTION": 13.86600499, "ECCENTRICITY": 0.01463977, "INCLINATION": 98.9947, "RA_OF_ASC_NODE": 127.6802, "ARG_OF_PERICENTER": 322.1664, "MEAN_ANOMALY": 169.302, "EPHEMERIS_TYPE": 0, "CLASSIFICATION_TYPE": "U", "NORAD_CAT_ID": 30150, "ELEMENT_SET_NO": 999, "REV_AT_EPOCH": 95529, "BSTAR": 0.00045822707, "MEAN_MOTION_DOT": 5.36e-06, "MEAN_MOTION_DDOT": 0}, "tle": {"line1": "1 30150U 99025TF  25351.88427288  .00000536  00000+0  45823-3 0  9995", "line2": "2 30150  98.9947 127.6802 0146397 322.1664 169.3020 13.86600499955294"}}, "geometry": {"type": "Point", "coordinates": [-3.4647434383831883, 77.97384523531528]}}, {"type": "Feature", "properties": {"norad_id": 30151, "name": "FENGYUN 1C DEB", "group": "fengyun-1c-debris", "lat": -31.35595692147753, "lon": 174.93144279589265, "alt_km": 877.3776350642538, "timestamp": "2025-12-18T17:50:15.231264+00:00", "meta": {"OBJECT_NAME": "FENGYUN 1C DEB", "OBJECT_ID": "1999-025TG", "EPOCH": "2025-12-17T12:04:17.422752", "MEAN_MOTION": 13.84479587, "ECCENTRICITY": 0.01631891, "INCLINATION": 99.0631, "RA_OF_ASC_NODE": 359.3154, "ARG_OF_PERICENTER": 265.9153, "MEAN_ANOMALY": 248.9745, "EPHEMERIS_TYPE": 0, "CLASSIFICATION_TYPE": "U", "NORAD_CAT_ID": 30151, "ELEMENT_SET_NO": 999, "REV_AT_EPOCH": 95311, "BSTAR": 0.00051498702, "MEAN_MOTION_DOT": 5.96e-06, "MEAN_MOTION_DDOT": 0}, "tle": {"line1": "1 30151U 99025TG  25351.50297943  .00000596  00000+0  51499-3 0  9990", "line2": "2 30151  99.0631 359.3154 0163189 265.9153 248.9745 13.84479587953113"}}, "geometry": {"type": "Point", "coordinates": [174.93144279589265, -31.35595692147753]}}, {"type": "Feature", "properties": {"norad_id": 30152, "name": "FENGYUN 1C DEB", "group": "fengyun-1c-debris", "lat": -58.78279609576185, "lon": 15.119324569292559, "alt_km": 1029.0179798146764, "timestamp": "2025-12-18T17:50:15.231274+00:00", "meta": {"OBJECT_NAME": "FENGYUN 1C DEB", "OBJECT_ID": "1999-025TH", "EPOCH": "2025-12-18T01:13:43.764672", "MEAN_MOTION": 13.96726338, "ECCENTRICITY": 0.01623704, "INCLINATION": 99.08, "RA_OF_ASC_NODE": 209.7361, "ARG_OF_PERICENTER": 70.7111, "MEAN_ANOMALY": 291.1534, "EPHEMERIS_TYPE": 0, "CLASSIFICATION_TYPE": "U", "NORAD_CAT_ID": 30152, "ELEMENT_SET_NO": 999, "REV_AT_EPOCH": 95452, "BSTAR": 0.0021947649, "MEAN_MOTION_DOT": 3.362e-05, "MEAN_MOTION_DDOT": 0}, "tle": {"line1": "1 30152U 99025TH  25352.05120098  .00003362  00000+0  21948-2 0  9997", "line2": "2 30152  99.0800 209.7361 0162370  70.7111 291.1534 13.96726338954521"}}, "geometry": {"type": "Point", "coordinates": [15.119324569292559, -58.78279609576185]}}, {"type": "Feature", "properties": {"norad_id": 30153, "name": "FENGYUN 1C DEB", "group": "fengyun-1c-debris", "lat": -27.369113617250463, "lon": 158.2557017878422, "alt_km": 1089.8696423493484, "timestamp": "2025-12-18T17:50:15.231284+00:00", "meta": {"OBJECT_NAME": "FENGYUN 1C DEB", "OBJECT_ID": "1999-025TJ", "EPOCH": "2025-12-17T21:56:39.857280", "MEAN_MOTION": 13.78784836, "ECCENTRICITY": 0.02006651, "INCLINATION": 100.467, "RA_OF_ASC_NODE": 342.8326, "ARG_OF_PERICENTER": 352.5028, "MEAN_ANOMALY": 64.5204, "EPHEMERIS_TYPE": 0, "CLASSIFICATION_TYPE": "U", "NORAD_CAT_ID": 30153, "ELEMENT_SET_NO": 999, "REV_AT_EPOCH": 94846, "BSTAR": 0.0010652678, "MEAN_MOTION_DOT": 1.206e-05, "MEAN_MOTION_DDOT": 0}, "tle": {"line1": "1 30153U 99025TJ  25351.91435020  .00001206  00000+0  10653-2 0  9992", "line2": "2 30153 100.4670 342.8326 0200665 352.5028  64.5204 13.78784836948461"}}, "geometry": {"type": "Point", "coordinates": [158.2557017878422, -27.369113617250463]}}, {"type": "Feature", "properties": {"norad_id": 30154, "name": "FENGYUN 1C DEB", "group": "fengyun-1c-debris", "lat": -73.42526966174499, "lon": -176.01184387422504, "alt_km": 909.0801579140316, "timestamp": "2025-12-18T17:50:15.231294+00:00", "meta": {"OBJECT_NAME": "FENGYUN 1C DEB", "OBJECT_ID": "1999-025TK", "EPOCH": "2025-12-18T01:10:08.583744", "MEAN_MOTION": 13.86008761, "ECCENTRICITY": 0.01829924, "INCLINATION": 98.4493, "RA_OF_ASC_NODE": 33.3214, "ARG_OF_PERICENTER": 184.316, "MEAN_ANOMALY": 205.8411, "EPHEMERIS_TYPE": 0, "CLASSIFICATION_TYPE": "U", "NORAD_CAT_ID": 30154, "ELEMENT_SET_NO": 999, "REV_AT_EPOCH": 95058, "BSTAR": 0.001303302, "MEAN_MOTION_DOT": 1.672e-05, "MEAN_MOTION_DDOT": 0}, "tle": {"line1": "1 30154U 99025TK  25352.04871046  .00001672  00000+0  13033-2 0  9992", "line2": "2 30154  98.4493  33.3214 0182992 184.3160 205.8411 13.86008761950580"}}, "geometry": {"type": "Point", "coordinates": [-176.01184387422504, -73.42526966174499]}}, {"type": "Feature", "properties": {"norad_id": 30155, "name": "FENGYUN 1C DEB", "group": "fengyun-1c-debris", "lat": -27.315973537859534, "lon": -118.7045067207681, "alt_km": 1078.814755219736, "timestamp": "2025-12-18T17:50:15.231304+00:00", "meta": {"OBJECT_NAME": "FENGYUN 1C DEB", "OBJECT_ID": "1999-025TL", "EPOCH": "2025-12-18T04:34:35.420736", "MEAN_MOTION": 13.73823835, "ECCENTRICITY": 0.02421097, "INCLINATION": 99.7516, "RA_OF_ASC_NODE": 65.8274, "ARG_OF_PERICENTER": 329.5963, "MEAN_ANOMALY": 29.1328, "EPHEMERIS_TYPE": 0, "CLASSIFICATION_TYPE": "U", "NORAD_CAT_ID": 30155, "ELEMENT_SET_NO": 999, "REV_AT_EPOCH": 93939, "BSTAR": 0.0016685733, "MEAN_MOTION_DOT": 1.882e-05, "MEAN_MOTION_DDOT": 0}, "tle": {"line1": "1 30155U 99025TL  25352.19068774  .00001882  00000+0  16686-2 0  9995", "line2": "2 30155  99.7516  65.8274 0242109 329.5963  29.1328 13.73823835939391"}}, "geometry": {"type": "Point", "coordinates": [-118.7045067207681, -27.315973537859534]}}, {"type": "Feature", "properties": {"norad_id": 30156, "name": "FENGYUN 1C DEB", "group": "fengyun-1c-debris", "lat": -72.70618341948824, "lon": 109.12369793765069, "alt_km": 823.7197020785215, "timestamp": "2025-12-18T17:50:15.231314+00:00", "meta": {"OBJECT_NAME": "FENGYUN 1C DEB", "OBJECT_ID": "1999-025TM", "EPOCH": "2025-12-18T04:30:31.826304", "MEAN_MOTION": 13.80829064, "ECCENTRICITY": 0.01988802, "INCLINATION": 98.9185, "RA_OF_ASC_NODE": 318.8863, "ARG_OF_PERICENTER": 248.2231, "MEAN_ANOMALY": 127.3292, "EPHEMERIS_TYPE": 0, "CLASSIFICATION_TYPE": "U", "NORAD_CAT_ID": 30156, "ELEMENT_SET_NO": 999, "REV_AT_EPOCH": 94766, "BSTAR": 0.00097910584, "MEAN_MOTION_DOT": 1.155e-05, "MEAN_MOTION_DDOT": 0}, "tle": {"line1": "1 30156U 99025TM  25352.18786836  .00001155  00000+0  97911-3 0  9995", "line2": "2 30156  98.9185 318.8863 0198880 248.2231 127.3292 13.80829064947669"}}, "geometry": {"type": "Point", "coordinates": [109.12369793765069, -72.70618341948824]}}, {"type": "Feature", "properties": {"norad_id": 30157, "name": "FENGYUN 1C DEB", "group": "fengyun-1c-debris", "lat": 58.85320678909214, "lon": -75.35859991630754, "alt_km": 720.7004457443009, "timestamp": "2025-12-18T17:50:15.231324+00:00", "meta": {"OBJECT_NAME": "FENGYUN 1C DEB", "OBJECT_ID": "1999-025TN", "EPOCH": "2025-12-18T05:54:22.891392", "MEAN_MOTION": 14.45176122, "ECCENTRICITY": 0.00371397, "INCLINATION": 98.7167, "RA_OF_ASC_NODE": 89.4254, "ARG_OF_PERICENTER": 177.0451, "MEAN_ANOMALY": 238.3523, "EPHEMERIS_TYPE": 0, "CLASSIFICATION_TYPE": "U", "NORAD_CAT_ID": 30157, "ELEMENT_SET_NO": 999, "REV_AT_EPOCH": 98152, "BSTAR": 0.0017628744, "MEAN_MOTION_DOT": 6.184e-05, "MEAN_MOTION_DDOT": 0}, "tle": {"line1": "1 30157U 99025TN  25352.24609828  .00006184  00000+0  17629-2 0  9992", "line2": "2 30157  98.7167  89.4254 0037139 177.0451 238.3523 14.45176122981520"}}, "geometry": {"type": "Point", "coordinates": [-75.35859991630754, 58.85320678909214]}}]}